<?xml version="1.0" encoding="UTF-8"?>
<ndm xmlns:xsi="http://www.w3.org/2001/XMLSchema-instance" xsi:noNamespaceSchemaLocation="https://sanaregistry.org/r/ndmxml_unqualified/ndmxml-2.0.0-master-2.0.xsd">
<omm id="CCSDS_OMM_VERS" version="2.0">
<header><CREATION_DATE/><ORIGINATOR/></header><body><segment><metadata><OBJECT_NAME>ORBCOMM FM20</OBJECT_NAME><OBJECT_ID>1998-046D</OBJECT_ID><CENTER_NAME>EARTH</CENTER_NAME><REF_FRAME>TEME</REF_FRAME><TIME_SYSTEM>UTC</TIME_SYSTEM><MEAN_ELEMENT_THEORY>SGP4</MEAN_ELEMENT_THEORY></metadata><data><meanElements><EPOCH>2025-02-15T00:58:03.882144</EPOCH><MEAN_MOTION>14.36750907</MEAN_MOTION><ECCENTRICITY>.000233</ECCENTRICITY><INCLINATION>44.9952</INCLINATION><RA_OF_ASC_NODE>39.5569</RA_OF_ASC_NODE><ARG_OF_PERICENTER>310.2273</ARG_OF_PERICENTER><MEAN_ANOMALY>49.8371</MEAN_ANOMALY></meanElements><tleParameters><EPHEMERIS_TYPE>0</EPHEMERIS_TYPE><CLASSIFICATION_TYPE>U</CLASSIFICATION_TYPE><NORAD_CAT_ID>25416</NORAD_CAT_ID><ELEMENT_SET_NO>999</ELEMENT_SET_NO><REV_AT_EPOCH>38673</REV_AT_EPOCH><BSTAR>.67044E-3</BSTAR><MEAN_MOTION_DOT>.1854E-4</MEAN_MOTION_DOT><MEAN_MOTION_DDOT>0</MEAN_MOTION_DDOT></tleParameters></data></segment></body></omm>
<omm id="CCSDS_OMM_VERS" version="2.0">
<header><CREATION_DATE/><ORIGINATOR/></header><body><segment><metadata><OBJECT_NAME>ORBCOMM FM16</OBJECT_NAME><OBJECT_ID>1998-046E</OBJECT_ID><CENTER_NAME>EARTH</CENTER_NAME><REF_FRAME>TEME</REF_FRAME><TIME_SYSTEM>UTC</TIME_SYSTEM><MEAN_ELEMENT_THEORY>SGP4</MEAN_ELEMENT_THEORY></metadata><data><meanElements><EPOCH>2025-02-15T10:51:44.031744</EPOCH><MEAN_MOTION>14.38266388</MEAN_MOTION><ECCENTRICITY>.0004533</ECCENTRICITY><INCLINATION>44.9944</INCLINATION><RA_OF_ASC_NODE>30.7060</RA_OF_ASC_NODE><ARG_OF_PERICENTER>13.1873</ARG_OF_PERICENTER><MEAN_ANOMALY>346.9093</MEAN_ANOMALY></meanElements><tleParameters><EPHEMERIS_TYPE>0</EPHEMERIS_TYPE><CLASSIFICATION_TYPE>U</CLASSIFICATION_TYPE><NORAD_CAT_ID>25417</NORAD_CAT_ID><ELEMENT_SET_NO>999</ELEMENT_SET_NO><REV_AT_EPOCH>38694</REV_AT_EPOCH><BSTAR>.98399E-3</BSTAR><MEAN_MOTION_DOT>.2879E-4</MEAN_MOTION_DOT><MEAN_MOTION_DDOT>0</MEAN_MOTION_DDOT></tleParameters></data></segment></body></omm>
<omm id="CCSDS_OMM_VERS" version="2.0">
<header><CREATION_DATE/><ORIGINATOR/></header><body><segment><metadata><OBJECT_NAME>ORBCOMM FM15</OBJECT_NAME><OBJECT_ID>1998-046F</OBJECT_ID><CENTER_NAME>EARTH</CENTER_NAME><REF_FRAME>TEME</REF_FRAME><TIME_SYSTEM>UTC</TIME_SYSTEM><MEAN_ELEMENT_THEORY>SGP4</MEAN_ELEMENT_THEORY></metadata><data><meanElements><EPOCH>2025-02-14T16:54:53.533728</EPOCH><MEAN_MOTION>14.37934270</MEAN_MOTION><ECCENTRICITY>.0004077</ECCENTRICITY><INCLINATION>44.9972</INCLINATION><RA_OF_ASC_NODE>39.0424</RA_OF_ASC_NODE><ARG_OF_PERICENTER>6.7189</ARG_OF_PERICENTER><MEAN_ANOMALY>353.3713</MEAN_ANOMALY></meanElements><tleParameters><EPHEMERIS_TYPE>0</EPHEMERIS_TYPE><CLASSIFICATION_TYPE>U</CLASSIFICATION_TYPE><NORAD_CAT_ID>25418</NORAD_CAT_ID><ELEMENT_SET_NO>999</ELEMENT_SET_NO><REV_AT_EPOCH>38661</REV_AT_EPOCH><BSTAR>.76672E-3</BSTAR><MEAN_MOTION_DOT>.2196E-4</MEAN_MOTION_DOT><MEAN_MOTION_DDOT>0</MEAN_MOTION_DDOT></tleParameters></data></segment></body></omm>
<omm id="CCSDS_OMM_VERS" version="2.0">
<header><CREATION_DATE/><ORIGINATOR/></header><body><segment><metadata><OBJECT_NAME>ORBCOMM FM14</OBJECT_NAME><OBJECT_ID>1998-046G</OBJECT_ID><CENTER_NAME>EARTH</CENTER_NAME><REF_FRAME>TEME</REF_FRAME><TIME_SYSTEM>UTC</TIME_SYSTEM><MEAN_ELEMENT_THEORY>SGP4</MEAN_ELEMENT_THEORY></metadata><data><meanElements><EPOCH>2025-02-15T09:02:44.961792</EPOCH><MEAN_MOTION>14.38250988</MEAN_MOTION><ECCENTRICITY>.0003519</ECCENTRICITY><INCLINATION>44.9963</INCLINATION><RA_OF_ASC_NODE>34.4249</RA_OF_ASC_NODE><ARG_OF_PERICENTER>353.8522</ARG_OF_PERICENTER><MEAN_ANOMALY>6.2282</MEAN_ANOMALY></meanElements><tleParameters><EPHEMERIS_TYPE>0</EPHEMERIS_TYPE><CLASSIFICATION_TYPE>U</CLASSIFICATION_TYPE><NORAD_CAT_ID>25419</NORAD_CAT_ID><ELEMENT_SET_NO>999</ELEMENT_SET_NO><REV_AT_EPOCH>38689</REV_AT_EPOCH><BSTAR>.92193E-3</BSTAR><MEAN_MOTION_DOT>.2687E-4</MEAN_MOTION_DOT><MEAN_MOTION_DDOT>0</MEAN_MOTION_DDOT></tleParameters></data></segment></body></omm>
<omm id="CCSDS_OMM_VERS" version="2.0">
<header><CREATION_DATE/><ORIGINATOR/></header><body><segment><metadata><OBJECT_NAME>ORBCOMM FM13</OBJECT_NAME><OBJECT_ID>1998-046H</OBJECT_ID><CENTER_NAME>EARTH</CENTER_NAME><REF_FRAME>TEME</REF_FRAME><TIME_SYSTEM>UTC</TIME_SYSTEM><MEAN_ELEMENT_THEORY>SGP4</MEAN_ELEMENT_THEORY></metadata><data><meanElements><EPOCH>2025-02-15T07:41:27.156480</EPOCH><MEAN_MOTION>14.37145572</MEAN_MOTION><ECCENTRICITY>.0005417</ECCENTRICITY><INCLINATION>44.9976</INCLINATION><RA_OF_ASC_NODE>41.5363</RA_OF_ASC_NODE><ARG_OF_PERICENTER>359.6618</ARG_OF_PERICENTER><MEAN_ANOMALY>0.4226</MEAN_ANOMALY></meanElements><tleParameters><EPHEMERIS_TYPE>0</EPHEMERIS_TYPE><CLASSIFICATION_TYPE>U</CLASSIFICATION_TYPE><NORAD_CAT_ID>25420</NORAD_CAT_ID><ELEMENT_SET_NO>999</ELEMENT_SET_NO><REV_AT_EPOCH>38683</REV_AT_EPOCH><BSTAR>.90056E-3</BSTAR><MEAN_MOTION_DOT>.2561E-4</MEAN_MOTION_DOT><MEAN_MOTION_DDOT>0</MEAN_MOTION_DDOT></tleParameters></data></segment></body></omm>
<omm id="CCSDS_OMM_VERS" version="2.0">
<header><CREATION_DATE/><ORIGINATOR/></header><body><segment><metadata><OBJECT_NAME>ORBCOMM FM21</OBJECT_NAME><OBJECT_ID>1998-053A</OBJECT_ID><CENTER_NAME>EARTH</CENTER_NAME><REF_FRAME>TEME</REF_FRAME><TIME_SYSTEM>UTC</TIME_SYSTEM><MEAN_ELEMENT_THEORY>SGP4</MEAN_ELEMENT_THEORY></metadata><data><meanElements><EPOCH>2025-02-15T12:14:27.193344</EPOCH><MEAN_MOTION>14.36893802</MEAN_MOTION><ECCENTRICITY>.0002495</ECCENTRICITY><INCLINATION>45.0081</INCLINATION><RA_OF_ASC_NODE>125.5439</RA_OF_ASC_NODE><ARG_OF_PERICENTER>269.7212</ARG_OF_PERICENTER><MEAN_ANOMALY>90.3350</MEAN_ANOMALY></meanElements><tleParameters><EPHEMERIS_TYPE>0</EPHEMERIS_TYPE><CLASSIFICATION_TYPE>U</CLASSIFICATION_TYPE><NORAD_CAT_ID>25475</NORAD_CAT_ID><ELEMENT_SET_NO>999</ELEMENT_SET_NO><REV_AT_EPOCH>38007</REV_AT_EPOCH><BSTAR>.63064E-3</BSTAR><MEAN_MOTION_DOT>.1741E-4</MEAN_MOTION_DOT><MEAN_MOTION_DDOT>0</MEAN_MOTION_DDOT></tleParameters></data></segment></body></omm>
<omm id="CCSDS_OMM_VERS" version="2.0">
<header><CREATION_DATE/><ORIGINATOR/></header><body><segment><metadata><OBJECT_NAME>ORBCOMM FM22</OBJECT_NAME><OBJECT_ID>1998-053B</OBJECT_ID><CENTER_NAME>EARTH</CENTER_NAME><REF_FRAME>TEME</REF_FRAME><TIME_SYSTEM>UTC</TIME_SYSTEM><MEAN_ELEMENT_THEORY>SGP4</MEAN_ELEMENT_THEORY></metadata><data><meanElements><EPOCH>2025-02-14T22:26:52.112832</EPOCH><MEAN_MOTION>14.37780141</MEAN_MOTION><ECCENTRICITY>.0003997</ECCENTRICITY><INCLINATION>45.0067</INCLINATION><RA_OF_ASC_NODE>124.0460</RA_OF_ASC_NODE><ARG_OF_PERICENTER>290.9904</ARG_OF_PERICENTER><MEAN_ANOMALY>69.0517</MEAN_ANOMALY></meanElements><tleParameters><EPHEMERIS_TYPE>0</EPHEMERIS_TYPE><CLASSIFICATION_TYPE>U</CLASSIFICATION_TYPE><NORAD_CAT_ID>25476</NORAD_CAT_ID><ELEMENT_SET_NO>999</ELEMENT_SET_NO><REV_AT_EPOCH>37967</REV_AT_EPOCH><BSTAR>.70068E-3</BSTAR><MEAN_MOTION_DOT>.1988E-4</MEAN_MOTION_DOT><MEAN_MOTION_DDOT>0</MEAN_MOTION_DDOT></tleParameters></data></segment></body></omm>
<omm id="CCSDS_OMM_VERS" version="2.0">
<header><CREATION_DATE/><ORIGINATOR/></header><body><segment><metadata><OBJECT_NAME>ORBCOMM FM23</OBJECT_NAME><OBJECT_ID>1998-053C</OBJECT_ID><CENTER_NAME>EARTH</CENTER_NAME><REF_FRAME>TEME</REF_FRAME><TIME_SYSTEM>UTC</TIME_SYSTEM><MEAN_ELEMENT_THEORY>SGP4</MEAN_ELEMENT_THEORY></metadata><data><meanElements><EPOCH>2025-02-14T14:53:40.433568</EPOCH><MEAN_MOTION>14.37016778</MEAN_MOTION><ECCENTRICITY>.0003262</ECCENTRICITY><INCLINATION>45.0074</INCLINATION><RA_OF_ASC_NODE>132.0279</RA_OF_ASC_NODE><ARG_OF_PERICENTER>279.4638</ARG_OF_PERICENTER><MEAN_ANOMALY>80.5841</MEAN_ANOMALY></meanElements><tleParameters><EPHEMERIS_TYPE>0</EPHEMERIS_TYPE><CLASSIFICATION_TYPE>U</CLASSIFICATION_TYPE><NORAD_CAT_ID>25477</NORAD_CAT_ID><ELEMENT_SET_NO>999</ELEMENT_SET_NO><REV_AT_EPOCH>37976</REV_AT_EPOCH><BSTAR>.66598E-3</BSTAR><MEAN_MOTION_DOT>.1852E-4</MEAN_MOTION_DOT><MEAN_MOTION_DDOT>0</MEAN_MOTION_DDOT></tleParameters></data></segment></body></omm>

</ndm>
