ORBCOMM FM20            
1 25416U 98046D   25046.04032271  .00001854  00000+0  67044-3 0  9992
2 25416  44.9952  39.5569 0002330 310.2273  49.8371 14.36750907386737
ORBCOMM FM16            
1 25417U 98046E   25046.45259296  .00002879  00000+0  98399-3 0  9991
2 25417  44.9944  30.7060 0004533  13.1873 346.9093 14.38266388386942
ORBCOMM FM15            
1 25418U 98046F   25045.70478627  .00002196  00000+0  76672-3 0  9992
2 25418  44.9972  39.0424 0004077   6.7189 353.3713 14.37934270386617
ORBCOMM FM14            
1 25419U 98046G   25046.37690928  .00002687  00000+0  92193-3 0  9998
2 25419  44.9963  34.4249 0003519 353.8522   6.2282 14.38250988386892
ORBCOMM FM13            
1 25420U 98046H   25046.32045320  .00002561  00000+0  90056-3 0  9992
2 25420  44.9976  41.5363 0005417 359.6618   0.4226 14.37145572386832
ORBCOMM FM21            
1 25475U 98053A   25046.51003696  .00001741  00000+0  63064-3 0  9999
2 25475  45.0081 125.5439 0002495 269.7212  90.3350 14.36893802380073
ORBCOMM FM22            
1 25476U 98053B   25045.93532538  .00001988  00000+0  70068-3 0  9992
2 25476  45.0067 124.0460 0003997 290.9904  69.0517 14.37780141379672
ORBCOMM FM23            
1 25477U 98053C   25045.62060687  .00001852  00000+0  66598-3 0  9993
2 25477  45.0074 132.0279 0003262 279.4638  80.5841 14.37016778379765
